STARLINK-32742          
1 62605U 25008U   25025.91668981 -.00544684  00000+0 -37125-2 0  9998
2 62605  43.0035  66.9745 0001534 272.4789 316.8021 15.75428426  3182
STARLINK-32783          
1 62606U 25008V   25025.91668981 -.00480186  00000+0 -32575-2 0  9999
2 62606  43.0037  66.9698 0001210 277.6380 313.6013 15.75363606  3136
STARLINK-32784          
1 62607U 25008W   25025.91668981 -.00443044  00000+0 -29974-2 0  9991
2 62607  43.0034  66.9647 0001365 284.8602 308.3190 15.75323820  3193
BLUE GHOST              
1 62716U 25010A   25015.29938097 -.00032000  26295-4  00000+0 0  9993
2 62716  35.0400 359.0739 9608400 346.4200   0.0135  0.12641706    04
HAKUTO-R                
1 62717U 25010B   25015.31796730 -.00038243  31373-4  00000+0 0  9991
2 62717  35.1700   0.1839 9650900 345.5700   0.7230  0.10673359    01
BLUE RING PATHFINDER    
1 62720U 25011A   25025.20269862 -.00000088  00000+0  00000+0 0  9990
2 62720  30.0050  33.2186 4887822 273.1429  34.2547  3.84317800   343
2025-012A               
1 62725U 25012A   25025.93793726  .00015225  00000+0  83269-3 0  9997
2 62725  97.4801 101.7448 0008651 242.8832 117.1518 15.14329512  1274
2025-012B               
1 62726U 25012B   25025.87084334  .00008860  00000+0  48306-3 0  9999
2 62726  97.4800 101.6812 0008977 240.9761 119.0572 15.14578197  1286
2025-012C               
1 62727U 25012C   25025.87125780  .00014221  00000+0  77303-3 0  9998
2 62727  97.4803 101.6808 0008584 238.5356 121.5038 15.14563851  1266
2025-013A               
1 62729U 25013A   25025.90375641  .00019886  00000+0  12386-2 0  9999
2 62729  97.6083 192.9511 0013763 266.8880  93.0774 15.09531777   833
2025-013B               
1 62730U 25013B   25025.90377354  .00008074  00000+0  50853-3 0  9993
2 62730  97.6089 192.9515 0013705 265.8783  94.0880 15.09354948   834
2025-013C               
1 62731U 25013C   25025.70456791  .00011196  00000+0  70139-3 0  9993
2 62731  97.6104 192.7558 0013680 268.3545  91.6117 15.09456333   808
2025-013D               
1 62732U 25013D   25024.71012791  .00009770  00000+0  61074-3 0  9995
2 62732  97.6083 191.7692 0013691 273.1637  86.8026 15.09572167   596
2025-013E               
1 62733U 25013E   25023.91469581  .00009021  00000+0  56415-3 0  9992
2 62733  97.6099 190.9772 0013758 278.2532  81.7137 15.09581540   422
STARLINK-32806          
1 62735U 25014A   25025.91668981 -.00969203  00000+0 -49177-2 0  9997
2 62735  43.0096 310.4699 0001614 262.2239  44.1208 15.82959565  1798
STARLINK-32329          
1 62736U 25014B   25025.91668981 -.00977735  00000+0 -49432-2 0  9991
2 62736  43.0095 310.4673 0001778 267.6876  39.6722 15.83054459  1695
STARLINK-32774          
1 62737U 25014C   25025.91668981 -.00994367  00000+0 -49857-2 0  9993
2 62737  43.0096 310.4618 0001801 254.7239  54.9358 15.83269664  1694
STARLINK-32802          
1 62738U 25014D   25025.91668981 -.00985023  00000+0 -49606-2 0  9995
2 62738  43.0095 310.4646 0001673 268.7274  39.7199 15.83155770  1793
STARLINK-32796          
1 62739U 25014E   25025.91668981 -.01009102  00000+0 -50405-2 0  9991
2 62739  43.0095 310.4585 0001829 267.7136  43.1482 15.83385251  1798
STARLINK-32805          
1 62740U 25014F   25025.91668981 -.01016508  00000+0 -50563-2 0  9996
2 62740  43.0094 310.4557 0001802 257.3653  54.6345 15.83491361  1793
STARLINK-32770          
1 62741U 25014G   25025.91668981 -.01021852  00000+0 -50624-2 0  9993
2 62741  43.0095 310.4530 0001760 259.3711  53.6887 15.83589351  1861
STARLINK-32775          
1 62742U 25014H   25025.91668981 -.01035239  00000+0 -51092-2 0  9998
2 62742  43.0094 310.4500 0001637 265.1016  49.1303 15.83703784  1797
STARLINK-32800          
1 62743U 25014J   25025.91668981 -.01040855  00000+0 -51160-2 0  9995
2 62743  43.0093 310.4473 0001790 263.1840  52.0997 15.83800910  1790
STARLINK-32758          
1 62744U 25014K   25025.91668981 -.01060788  00000+0 -51711-2 0  9995
2 62744  43.0094 310.4415 0001682 257.6987  59.9290 15.84023628  1918
STARLINK-32746          
1 62745U 25014L   25025.91668981 -.01049728  00000+0 -51390-2 0  9990
2 62745  43.0092 310.4443 0001684 268.7072  47.7225 15.83907551  1792
STARLINK-32780          
1 62746U 25014M   25025.91668981 -.01080354  00000+0 -52247-2 0  9993
2 62746  43.0090 310.4356 0001628 267.9577  51.9319 15.84238456  1796
STARLINK-32765          
1 62747U 25014N   25025.91668981 -.01069078  00000+0 -51916-2 0  9996
2 62747  43.0090 310.4384 0001733 263.9265  54.7693 15.84123169  1795
FALCON 9 DEB            
1 62718U 25010C   25015.29938097 -.00032000  26295-4  00000+0 0  9995
2 62718  35.0400 359.0739 9608400 346.4200   0.0135  0.12641706    06
FALCON 9 R/B            
1 62719U 25010D   25015.31796730 -.00038243  31373-4  00000+0 0  9993
2 62719  35.1700   0.1839 9650900 345.5700   0.7230  0.10673359    03
2025-012D               
1 62728U 25012D   25025.93853857  .00029549  00000+0  16017-2 0  9992
2 62728  97.4804 101.7446 0008655 229.7333 130.3142 15.14506550  1271
