OBJECT_NAME,OBJECT_ID,EPOCH,MEAN_MOTION,ECCENTRICITY,INCLINATION,RA_OF_ASC_NODE,ARG_OF_PERICENTER,MEAN_ANOMALY,EPHEMERIS_TYPE,CLASSIFICATION_TYPE,NORAD_CAT_ID,ELEMENT_SET_NO,REV_AT_EPOCH,BSTAR,MEAN_MOTION_DOT,MEAN_MOTION_DDOT
STARLINK-32742,2025-008U,2025-01-25T22:00:01.999584,15.75428426,.0001534,43.0035,66.9745,272.4789,316.8021,0,U,62605,999,318,-.37125E-2,-.544684E-2,0
STARLINK-32783,2025-008V,2025-01-25T22:00:01.999584,15.75363606,.000121,43.0037,66.9698,277.6380,313.6013,0,U,62606,999,313,-.32575E-2,-.480186E-2,0
STARLINK-32784,2025-008W,2025-01-25T22:00:01.999584,15.75323820,.0001365,43.0034,66.9647,284.8602,308.3190,0,U,62607,999,319,-.29974E-2,-.443044E-2,0
BLUE GHOST,2025-010A,2025-01-15T07:11:06.515808,0.12641706,.96084,35.0400,359.0739,346.4200,0.0135,0,U,62716,999,0,0,-.32E-3,.26295E-4
HAKUTO-R,2025-010B,2025-01-15T07:37:52.374720,0.10673359,.96509,35.1700,0.1839,345.5700,0.7230,0,U,62717,999,0,0,-.38243E-3,.31373E-4
FALCON 9 DEB,2025-010C,2025-01-15T07:11:06.515808,0.12641706,.96084,35.0400,359.0739,346.4200,0.0135,0,U,62718,999,0,0,-.32E-3,.26295E-4
FALCON 9 R/B,2025-010D,2025-01-15T07:37:52.374720,0.10673359,.96509,35.1700,0.1839,345.5700,0.7230,0,U,62719,999,0,0,-.38243E-3,.31373E-4
BLUE RING PATHFINDER,2025-011A,2025-01-25T04:51:53.160768,3.84317800,.4887822,30.0050,33.2186,273.1429,34.2547,0,U,62720,999,34,0,-.88E-6,0
2025-012A,2025-012A,2025-01-25T22:30:37.779264,15.14329512,.0008651,97.4801,101.7448,242.8832,117.1518,0,U,62725,999,127,.83269E-3,.15225E-3,0
2025-012B,2025-012B,2025-01-25T20:54:00.864576,15.14578197,.0008977,97.4800,101.6812,240.9761,119.0572,0,U,62726,999,128,.48306E-3,.886E-4,0
2025-012C,2025-012C,2025-01-25T20:54:36.673920,15.14563851,.0008584,97.4803,101.6808,238.5356,121.5038,0,U,62727,999,126,.77303E-3,.14221E-3,0
2025-012D,2025-012D,2025-01-25T22:31:29.732448,15.14506550,.0008655,97.4804,101.7446,229.7333,130.3142,0,U,62728,999,127,.16017E-2,.29549E-3,0
2025-013A,2025-013A,2025-01-25T21:41:24.553824,15.09531777,.0013763,97.6083,192.9511,266.8880,93.0774,0,U,62729,999,83,.12386E-2,.19886E-3,0
2025-013B,2025-013B,2025-01-25T21:41:26.033856,15.09354948,.0013705,97.6089,192.9515,265.8783,94.0880,0,U,62730,999,83,.50853E-3,.8074E-4,0
2025-013C,2025-013C,2025-01-25T16:54:34.667424,15.09456333,.001368,97.6104,192.7558,268.3545,91.6117,0,U,62731,999,80,.70139E-3,.11196E-3,0
2025-013D,2025-013D,2025-01-24T17:02:35.051424,15.09572167,.0013691,97.6083,191.7692,273.1637,86.8026,0,U,62732,999,59,.61074E-3,.977E-4,0
2025-013E,2025-013E,2025-01-23T21:57:09.717984,15.09581540,.0013758,97.6099,190.9772,278.2532,81.7137,0,U,62733,999,42,.56415E-3,.9021E-4,0
STARLINK-32806,2025-014A,2025-01-25T22:00:01.999584,15.82959565,.0001614,43.0096,310.4699,262.2239,44.1208,0,U,62735,999,179,-.49177E-2,-.969203E-2,0
STARLINK-32329,2025-014B,2025-01-25T22:00:01.999584,15.83054459,.0001778,43.0095,310.4673,267.6876,39.6722,0,U,62736,999,169,-.49432E-2,-.977735E-2,0
STARLINK-32774,2025-014C,2025-01-25T22:00:01.999584,15.83269664,.0001801,43.0096,310.4618,254.7239,54.9358,0,U,62737,999,169,-.49857E-2,-.994367E-2,0
STARLINK-32802,2025-014D,2025-01-25T22:00:01.999584,15.83155770,.0001673,43.0095,310.4646,268.7274,39.7199,0,U,62738,999,179,-.49606E-2,-.985023E-2,0
STARLINK-32796,2025-014E,2025-01-25T22:00:01.999584,15.83385251,.0001829,43.0095,310.4585,267.7136,43.1482,0,U,62739,999,179,-.50405E-2,-.1009102E-1,0
STARLINK-32805,2025-014F,2025-01-25T22:00:01.999584,15.83491361,.0001802,43.0094,310.4557,257.3653,54.6345,0,U,62740,999,179,-.50563E-2,-.1016508E-1,0
STARLINK-32770,2025-014G,2025-01-25T22:00:01.999584,15.83589351,.000176,43.0095,310.4530,259.3711,53.6887,0,U,62741,999,186,-.50624E-2,-.1021852E-1,0
STARLINK-32775,2025-014H,2025-01-25T22:00:01.999584,15.83703784,.0001637,43.0094,310.4500,265.1016,49.1303,0,U,62742,999,179,-.51092E-2,-.1035239E-1,0
STARLINK-32800,2025-014J,2025-01-25T22:00:01.999584,15.83800910,.000179,43.0093,310.4473,263.1840,52.0997,0,U,62743,999,179,-.5116E-2,-.1040855E-1,0
STARLINK-32758,2025-014K,2025-01-25T22:00:01.999584,15.84023628,.0001682,43.0094,310.4415,257.6987,59.9290,0,U,62744,999,191,-.51711E-2,-.1060788E-1,0
STARLINK-32746,2025-014L,2025-01-25T22:00:01.999584,15.83907551,.0001684,43.0092,310.4443,268.7072,47.7225,0,U,62745,999,179,-.5139E-2,-.1049728E-1,0
STARLINK-32780,2025-014M,2025-01-25T22:00:01.999584,15.84238456,.0001628,43.0090,310.4356,267.9577,51.9319,0,U,62746,999,179,-.52247E-2,-.1080354E-1,0
STARLINK-32765,2025-014N,2025-01-25T22:00:01.999584,15.84123169,.0001733,43.0090,310.4384,263.9265,54.7693,0,U,62747,999,179,-.51916E-2,-.1069078E-1,0
